OBJECT_NAME,OBJECT_ID,EPOCH,MEAN_MOTION,ECCENTRICITY,INCLINATION,RA_OF_ASC_NODE,ARG_OF_PERICENTER,MEAN_ANOMALY,EPHEMERIS_TYPE,CLASSIFICATION_TYPE,NORAD_CAT_ID,ELEMENT_SET_NO,REV_AT_EPOCH,BSTAR,MEAN_MOTION_DOT,MEAN_MOTION_DDOT
STARLINK-31600,2024-057X,2026-07-22T06:41:40.427232,15.27579403,.00011595,43.0013,154.6901,265.1631,94.9089,0,U,59341,999,13033,.9999911E-5,.13E-6,0
STARLINK-31628,2024-057Y,2026-07-21T21:40:07.495392,15.27575871,.00010811,43.0032,149.2459,273.2397,86.8331,0,U,59342,999,13036,.173831E-5,-.214E-5,0
STARLINK-31605,2024-060A,2026-07-21T07:45:39.617280,15.27593575,.00010527,43.0003,214.5012,280.9816,79.0918,0,U,59348,999,13056,.50990284E-4,.1142E-4,0
STARLINK-31532,2024-060B,2026-07-22T07:49:11.887392,15.27594601,.00011123,43.0002,219.5072,253.3018,106.7711,0,U,59349,999,13070,.13873354E-3,.3559E-4,0
STARLINK-31593,2024-060C,2026-07-21T09:08:28.552992,15.27575413,.00011671,43.0023,224.4575,276.4329,83.6390,0,U,59350,999,13051,-.8415412E-5,-.494E-5,0
STARLINK-31555,2024-060D,2026-07-21T02:11:21.297408,15.27576159,.00012681,42.9979,226.5779,276.0289,84.0418,0,U,59351,999,13051,.1088617E-5,-.232E-5,0
STARLINK-31561,2024-060E,2026-07-21T09:04:46.530048,15.27576000,.00014622,43.0032,224.4372,277.7463,82.3223,0,U,59352,999,13051,.4966948E-5,-.126E-5,0
STARLINK-31413,2024-060F,2026-07-20T11:26:57.177024,15.27571398,.00030237,43.0037,229.7197,286.2332,73.8187,0,U,59353,999,13037,.61736489E-4,.1436E-4,0
STARLINK-31422,2024-060G,2026-07-21T10:33:35.748576,15.27576450,.00007857,43.0009,224.8979,271.0700,89.0061,0,U,59354,999,13051,.18228902E-4,.24E-5,0
STARLINK-31416,2024-060H,2026-07-21T02:05:47.794272,15.27578183,.00012759,43.0008,226.5512,277.5623,82.5083,0,U,59355,999,13046,.25889566E-4,.45E-5,0
STARLINK-31552,2024-060J,2026-07-21T08:53:52.943424,15.27578743,.00009507,43.0001,225.2501,237.9240,122.1519,0,U,59356,999,13050,.19734646E-4,.281E-5,0
STARLINK-31557,2024-060K,2026-07-21T00:54:19.815840,15.27573174,.00011623,43.0009,222.6820,280.8777,79.1944,0,U,59357,999,13050,.82728679E-4,.2015E-4,0
STARLINK-31559,2024-060L,2026-07-22T07:34:24.869568,15.27578808,.00019064,43.0019,219.4316,275.2697,84.7937,0,U,59358,999,13065,.3291338E-4,.643E-5,0
STARLINK-31501,2024-060M,2026-07-21T11:51:04.748544,15.27588381,.00013103,43.0006,224.4444,288.2860,71.7849,0,U,59359,999,13052,.14353532E-4,.133E-5,0
STARLINK-31549,2024-060N,2026-07-21T10:53:45.039264,15.27553007,.00018191,43.0029,224.1473,294.0515,66.0146,0,U,59360,999,13052,.21633146E-3,.5691E-4,0
STARLINK-31560,2024-060P,2026-07-21T10:07:41.073024,15.27579114,.00012058,43.0007,224.7590,285.9699,74.1020,0,U,59361,999,13051,.27534862E-4,.496E-5,0
STARLINK-31571,2024-060Q,2026-07-21T10:11:22.922304,15.27577991,.00012061,42.9998,224.7795,275.9978,84.0737,0,U,59362,999,13051,.19450963E-4,.273E-5,0
STARLINK-31553,2024-060R,2026-07-21T02:05:20.463360,15.27575875,.0001018,43.0003,219.6141,259.5847,100.4890,0,U,59363,999,13054,.1769344E-5,-.213E-5,0
STARLINK-31547,2024-060S,2026-07-21T01:47:19.681440,15.27579376,.00010453,42.9993,215.2051,280.0836,79.9898,0,U,59364,999,13059,-.23377106E-4,-.905E-5,0
STARLINK-31537,2024-060T,2026-07-21T02:31:42.311712,15.27578420,.00013016,42.9992,226.6819,279.2114,80.8591,0,U,59365,999,13046,.3730971E-5,-.159E-5,0
STARLINK-31451,2024-060U,2026-07-21T01:23:14.801280,15.27574600,.00016619,43.0028,226.3322,279.8923,80.1741,0,U,59366,999,13046,-.11095081E-4,-.568E-5,0
STARLINK-31428,2024-060V,2026-07-21T09:30:40.816800,15.27575762,.00016783,43.0019,224.5725,271.1163,88.9496,0,U,59367,999,13051,.4838028E-5,-.129E-5,0
STARLINK-31419,2024-060W,2026-07-21T01:49:08.816736,15.27576928,.00013238,43.0010,226.4640,273.7476,86.3224,0,U,59368,999,13046,.27220908E-4,.487E-5,0
STARLINK-31583,2024-060X,2026-07-22T03:34:31.872000,15.27584827,.00017273,43.0018,209.5141,277.2424,82.8231,0,U,59369,999,13075,.34163067E-4,.678E-5,0
STARLINK-31461,2024-060Y,2026-07-22T06:59:29.857056,15.27581053,.00015282,43.0010,208.8603,271.7820,88.2857,0,U,59370,999,13071,.52097585E-4,.1172E-4,0
STARLINK-31641,2024-062A,2026-07-21T16:51:05.159520,15.34402238,.000118,53.1617,353.6036,87.2535,272.8603,0,U,59374,999,13017,.51993143E-4,.1381E-4,0
STARLINK-31430,2024-062B,2026-07-21T09:59:41.025120,15.34390742,.0000966,53.1617,355.3750,82.3624,277.7489,0,U,59375,999,13013,-.10899737E-4,-.744E-5,0
STARLINK-31695,2024-062C,2026-07-21T19:15:34.508736,15.34399835,.00008982,53.1616,351.3843,101.6761,258.4342,0,U,59376,999,13018,.540808E-6,-.358E-5,0
STARLINK-31716,2024-062D,2026-07-21T16:44:33.257760,15.30202270,.00007174,53.1624,304.5651,225.9242,134.1700,0,U,59377,999,13082,.69495425E-4,.17E-4,0
STARLINK-31710,2024-062E,2026-07-21T18:54:22.585824,15.34391724,.00011741,53.1603,351.2936,77.5399,282.5735,0,U,59378,999,13018,.44902393E-4,.1141E-4,0
STARLINK-31698,2024-062F,2026-07-21T10:47:13.204032,15.34396354,.00011427,53.1619,352.7481,115.1991,244.9130,0,U,59379,999,13013,.30759193E-4,.663E-5,0
STARLINK-31680,2024-062G,2026-07-21T18:33:58.346208,15.34408878,.00011991,53.1616,353.3320,81.0036,279.1102,0,U,59380,999,13015,.74847107E-4,.2154E-4,0
STARLINK-31713,2024-062H,2026-07-21T16:48:04.348512,15.34379430,.00014124,53.1623,353.5898,93.2932,266.8232,0,U,59381,999,13014,.10691987E-3,.3235E-4,0
STARLINK-31705,2024-062J,2026-07-21T19:03:27.698976,15.34395005,.00011016,53.1611,351.3301,87.4561,272.6568,0,U,59382,999,13018,.34383532E-4,.786E-5,0
STARLINK-31715,2024-062L,2026-07-21T17:59:57.950592,15.34401391,.00011963,53.1599,351.7684,62.5028,297.6096,0,U,59384,999,13021,.52760686E-4,.1407E-4,0
STARLINK-31717,2024-062M,2026-07-21T18:51:20.471904,15.34397990,.00010909,53.1597,351.2772,98.7568,261.3558,0,U,59385,999,13021,.93556342E-4,.2786E-4,0
STARLINK-31688,2024-062N,2026-07-21T10:41:58.228512,15.34395768,.00010218,53.1629,354.8458,84.5717,275.5403,0,U,59386,999,13010,.32364796E-4,.717E-5,0
STARLINK-31714,2024-062P,2026-07-21T17:08:27.486528,15.34383432,.00016826,53.1599,351.5415,116.9937,243.1238,0,U,59387,999,13016,.19398614E-3,.618E-4,0
STARLINK-31643,2024-062Q,2026-07-21T20:19:04.282176,15.34402650,.00012384,53.1591,350.9455,92.5611,267.5534,0,U,59388,999,13023,.59585011E-4,.1638E-4,0
STARLINK-31647,2024-062R,2026-07-21T19:51:56.704896,15.34400841,.00012779,53.1587,351.5750,95.4278,264.6870,0,U,59389,999,13022,.59627433E-4,.1639E-4,0
STARLINK-31649,2024-062S,2026-07-21T19:06:29.503584,15.34395701,.00011616,53.1596,351.3436,86.1670,273.9466,0,U,59390,999,13022,.2089966E-4,.33E-5,0
STARLINK-31644,2024-062T,2026-07-21T19:19:25.497408,15.34391564,.00012615,53.1623,353.5362,73.4178,286.6963,0,U,59391,999,13019,.34034854E-4,.774E-5,0
STARLINK-31626,2024-062U,2026-07-21T10:20:04.641792,15.34394105,.00012005,53.1636,353.3214,122.8585,237.2533,0,U,59392,999,13016,.7687964E-5,-.116E-5,0
STARLINK-31443,2024-062V,2026-07-21T15:42:54.758880,15.34393298,.00005745,53.1644,338.2100,320.7946,39.3015,0,U,59393,999,13039,.16850963E-4,.194E-5,0
STARLINK-31607,2024-062W,2026-07-21T19:24:40.208544,15.34400040,.00014153,53.1616,351.4217,82.3610,277.7554,0,U,59394,999,13021,.63713019E-4,.1777E-4,0
STARLINK-31608,2024-062X,2026-07-21T10:38:15.433152,15.34393517,.00015265,53.1629,353.4059,107.8445,252.2724,0,U,59397,999,13011,.26028895E-4,.503E-5,0
STARLINK-31534,2024-064A,2026-07-21T11:50:33.528768,15.27577827,.00016171,43.0045,20.1509,268.3532,91.7134,0,U,59398,999,12963,.51533528E-4,.1156E-4,0
STARLINK-31544,2024-064B,2026-07-21T19:21:12.031200,15.27579393,.00008172,43.0039,19.0601,248.6550,111.4214,0,U,59399,999,12973,.12493254E-4,.82E-6,0
STARLINK-31545,2024-064C,2026-07-21T19:57:59.377536,15.27583914,.00010659,43.0009,18.3894,257.4924,102.5808,0,U,59400,999,12974,.34588611E-4,.69E-5,0
STARLINK-31507,2024-064D,2026-07-21T12:16:27.202080,15.27581507,.00013321,43.0013,20.2801,266.4489,93.6210,0,U,59401,999,12963,.64772164E-4,.1521E-4,0
STARLINK-31543,2024-064E,2026-07-21T20:44:14.874720,15.27595985,.00012362,43.0035,18.6316,271.1378,88.9332,0,U,59402,999,12974,.11540126E-3,.2916E-4,0
STARLINK-31366,2024-064F,2026-07-21T20:23:53.113056,15.27595145,.00009732,43.0012,18.5260,261.7658,98.3084,0,U,59403,999,12974,-.4206564E-5,-.378E-5,0
STARLINK-31374,2024-064G,2026-07-21T10:29:17.372832,15.27590328,.00010139,43.0034,329.7812,256.5188,103.5551,0,U,59404,999,13001,-.4867547E-4,-.1602E-4,0
STARLINK-31400,2024-064H,2026-07-21T19:46:53.286240,15.27584098,.00012697,43.0030,18.3292,252.7786,107.2927,0,U,59405,999,12974,.55129667E-4,.1255E-4,0
STARLINK-31391,2024-064J,2026-07-21T19:52:25.216032,15.27615435,.00025185,43.0039,18.3606,286.6124,73.4451,0,U,59406,999,12974,.19148775E-3,.5016E-4,0
STARLINK-31387,2024-064K,2026-07-21T12:59:01.009824,15.27583106,.00011601,43.0019,20.5069,272.0346,88.0373,0,U,59407,999,12969,.9656321E-5,.4E-7,0
STARLINK-31396,2024-064M,2026-07-21T18:35:10.505760,15.27585307,.00006427,43.0038,8.4267,305.4964,54.5828,0,U,59409,999,12979,.8912975E-4,.2192E-4,0
STARLINK-31412,2024-064N,2026-07-21T20:18:20.164608,15.27589726,.00012395,43.0029,18.4940,270.8138,89.2571,0,U,59410,999,12974,.16947834E-3,.4406E-4,0
STARLINK-31483,2024-064P,2026-07-21T20:34:59.830752,15.27586982,.00007418,43.0017,18.5828,258.0395,102.0374,0,U,59411,999,12974,.2887118E-5,-.182E-5,0
STARLINK-31568,2024-064Q,2026-07-21T12:47:54.770784,15.27603133,.00003024,43.0023,20.4455,97.8821,262.2065,0,U,59412,999,12969,-.20228156E-3,-.5828E-4,0
STARLINK-31615,2024-064R,2026-07-21T19:56:04.427520,15.29366748,.00030673,43.0000,11.4311,302.5298,57.5258,0,U,59413,999,12982,.22784457E-2,.66566E-3,0
STARLINK-31457,2024-064S,2026-07-21T18:58:31.333152,15.27588620,.00009668,43.0042,11.9901,275.4705,84.6036,0,U,59414,999,12981,-.15062319E-4,-.677E-5,0
STARLINK-31398,2024-064T,2026-07-21T20:12:47.166048,15.27586872,.00009792,43.0012,18.4638,267.5476,92.5264,0,U,59415,999,12974,.4339992E-4,.933E-5,0
STARLINK-31399,2024-064U,2026-07-21T20:03:32.141952,15.27583307,.00010695,43.0008,18.4101,264.0104,96.0625,0,U,59416,999,12974,.32370448E-4,.629E-5,0
